{
  "schema": "int-telemetry-real-tle-snapshot/v1",
  "source": "celestrak",
  "group": "IRIDIUM-NEXT",
  "format": "celestrak-gp-json",
  "source_url": "https://celestrak.org/NORAD/elements/gp.php?GROUP=IRIDIUM-NEXT&FORMAT=JSON",
  "downloaded_at": "2026-07-07T06:33:54.787Z",
  "generated_at": "2026-07-07T06:33:56.153Z",
  "fingerprint": "75f53801",
  "shell_id": "iridium-next-real-86.4deg-785km",
  "catalog_count": 80,
  "shell_count": 67,
  "selected_count": 66,
  "mean_altitude_km": 784.8,
  "mean_inclination_deg": 86.3965,
  "mean_mean_motion_rev_per_day": 14.34218389,
  "layout": {
    "planes": 6,
    "satellites_per_plane": 11,
    "selection_strategy": "target-shell-raan-clusters-even-slot-sampling",
    "raan_cluster_threshold_deg": 6,
    "target_inclination_deg": 86.4,
    "target_altitude_km": 781,
    "selected_shell_key": "86.5deg-800km",
    "target_shell_distance": 4.16
  },
  "satellites": [
    {
      "satellite_id": "P05-S05",
      "norad_id": 43076,
      "satellite_name": "IRIDIUM 137",
      "cospar_id": "2017-083G",
      "shell_id": "iridium-next-real-86.4deg-785km",
      "plane_id": 4,
      "slot_id": 4,
      "epoch": "2026-07-06T09:28:47.109216",
      "inclination": 86.3985,
      "raan": 314.1305,
      "eccentricity": 0.00026403,
      "argument_of_perigee": 97.34620000000001,
      "mean_anomaly": 262.8034,
      "mean_motion": 14.3421866,
      "bstar": 0.000032507554,
      "status": "active",
      "raw_omm": {
        "OBJECT_NAME": "IRIDIUM 137",
        "OBJECT_ID": "2017-083G",
        "EPOCH": "2026-07-06T09:28:47.109216",
        "MEAN_MOTION": 14.3421866,
        "ECCENTRICITY": 0.00026403,
        "INCLINATION": 86.3985,
        "RA_OF_ASC_NODE": 314.1305,
        "ARG_OF_PERICENTER": 97.3462,
        "MEAN_ANOMALY": 262.8034,
        "EPHEMERIS_TYPE": 0,
        "CLASSIFICATION_TYPE": "U",
        "NORAD_CAT_ID": 43076,
        "ELEMENT_SET_NO": 999,
        "REV_AT_EPOCH": 44692,
        "BSTAR": 0.000032507554,
        "MEAN_MOTION_DOT": 0.00000111,
        "MEAN_MOTION_DDOT": 0
      },
      "source": "celestrak",
      "source_url": "https://celestrak.org/NORAD/elements/gp.php?GROUP=IRIDIUM-NEXT&FORMAT=JSON",
      "catalog_fingerprint": "75f53801"
    },
    {
      "satellite_id": "P05-S06",
      "norad_id": 43077,
      "satellite_name": "IRIDIUM 141",
      "cospar_id": "2017-083H",
      "shell_id": "iridium-next-real-86.4deg-785km",
      "plane_id": 4,
      "slot_id": 5,
      "epoch": "2026-07-06T09:19:39.128448",
      "inclination": 86.398,
      "raan": 313.9628,
      "eccentricity": 0.00021808,
      "argument_of_perigee": 91.8895,
      "mean_anomaly": 268.255,
      "mean_motion": 14.34218071,
      "bstar": 0.000014973527,
      "status": "active",
      "raw_omm": {
        "OBJECT_NAME": "IRIDIUM 141",
        "OBJECT_ID": "2017-083H",
        "EPOCH": "2026-07-06T09:19:39.128448",
        "MEAN_MOTION": 14.34218071,
        "ECCENTRICITY": 0.00021808,
        "INCLINATION": 86.398,
        "RA_OF_ASC_NODE": 313.9628,
        "ARG_OF_PERICENTER": 91.8895,
        "MEAN_ANOMALY": 268.255,
        "EPHEMERIS_TYPE": 0,
        "CLASSIFICATION_TYPE": "U",
        "NORAD_CAT_ID": 43077,
        "ELEMENT_SET_NO": 999,
        "REV_AT_EPOCH": 44692,
        "BSTAR": 0.000014973527,
        "MEAN_MOTION_DOT": 6.2e-7,
        "MEAN_MOTION_DDOT": 0
      },
      "source": "celestrak",
      "source_url": "https://celestrak.org/NORAD/elements/gp.php?GROUP=IRIDIUM-NEXT&FORMAT=JSON",
      "catalog_fingerprint": "75f53801"
    },
    {
      "satellite_id": "P05-S07",
      "norad_id": 43075,
      "satellite_name": "IRIDIUM 134",
      "cospar_id": "2017-083F",
      "shell_id": "iridium-next-real-86.4deg-785km",
      "plane_id": 4,
      "slot_id": 6,
      "epoch": "2026-07-06T20:53:47.073408",
      "inclination": 86.3981,
      "raan": 313.83889999999997,
      "eccentricity": 0.0002052,
      "argument_of_perigee": 95.4828,
      "mean_anomaly": 264.66020000000003,
      "mean_motion": 14.34217455,
      "bstar": -0.000020486,
      "status": "active",
      "raw_omm": {
        "OBJECT_NAME": "IRIDIUM 134",
        "OBJECT_ID": "2017-083F",
        "EPOCH": "2026-07-06T20:53:47.073408",
        "MEAN_MOTION": 14.34217455,
        "ECCENTRICITY": 0.0002052,
        "INCLINATION": 86.3981,
        "RA_OF_ASC_NODE": 313.8389,
        "ARG_OF_PERICENTER": 95.4828,
        "MEAN_ANOMALY": 264.6602,
        "EPHEMERIS_TYPE": 0,
        "CLASSIFICATION_TYPE": "U",
        "NORAD_CAT_ID": 43075,
        "ELEMENT_SET_NO": 999,
        "REV_AT_EPOCH": 44692,
        "BSTAR": -0.000020486,
        "MEAN_MOTION_DOT": -3.8e-7,
        "MEAN_MOTION_DDOT": 0
      },
      "source": "celestrak",
      "source_url": "https://celestrak.org/NORAD/elements/gp.php?GROUP=IRIDIUM-NEXT&FORMAT=JSON",
      "catalog_fingerprint": "75f53801"
    },
    {
      "satellite_id": "P05-S08",
      "norad_id": 43079,
      "satellite_name": "IRIDIUM 131",
      "cospar_id": "2017-083K",
      "shell_id": "iridium-next-real-86.4deg-785km",
      "plane_id": 4,
      "slot_id": 7,
      "epoch": "2026-07-06T20:44:39.120288",
      "inclination": 86.3984,
      "raan": 313.9513999999999,
      "eccentricity": 0.0002121,
      "argument_of_perigee": 93.32400000000001,
      "mean_anomaly": 266.81989999999996,
      "mean_motion": 14.34217791,
      "bstar": -0.0000032544,
      "status": "active",
      "raw_omm": {
        "OBJECT_NAME": "IRIDIUM 131",
        "OBJECT_ID": "2017-083K",
        "EPOCH": "2026-07-06T20:44:39.120288",
        "MEAN_MOTION": 14.34217791,
        "ECCENTRICITY": 0.0002121,
        "INCLINATION": 86.3984,
        "RA_OF_ASC_NODE": 313.9514,
        "ARG_OF_PERICENTER": 93.324,
        "MEAN_ANOMALY": 266.8199,
        "EPHEMERIS_TYPE": 0,
        "CLASSIFICATION_TYPE": "U",
        "NORAD_CAT_ID": 43079,
        "ELEMENT_SET_NO": 999,
        "REV_AT_EPOCH": 44692,
        "BSTAR": -0.0000032544,
        "MEAN_MOTION_DOT": 1.1e-7,
        "MEAN_MOTION_DDOT": 0
      },
      "source": "celestrak",
      "source_url": "https://celestrak.org/NORAD/elements/gp.php?GROUP=IRIDIUM-NEXT&FORMAT=JSON",
      "catalog_fingerprint": "75f53801"
    },
    {
      "satellite_id": "P05-S09",
      "norad_id": 43073,
      "satellite_name": "IRIDIUM 130",
      "cospar_id": "2017-083D",
      "shell_id": "iridium-next-real-86.4deg-785km",
      "plane_id": 4,
      "slot_id": 8,
      "epoch": "2026-07-06T20:35:31.024608",
      "inclination": 86.3989,
      "raan": 314.05459999999994,
      "eccentricity": 0.0002132,
      "argument_of_perigee": 100.44529999999997,
      "mean_anomaly": 259.6983,
      "mean_motion": 14.34218303,
      "bstar": 0.000024021,
      "status": "active",
      "raw_omm": {
        "OBJECT_NAME": "IRIDIUM 130",
        "OBJECT_ID": "2017-083D",
        "EPOCH": "2026-07-06T20:35:31.024608",
        "MEAN_MOTION": 14.34218303,
        "ECCENTRICITY": 0.0002132,
        "INCLINATION": 86.3989,
        "RA_OF_ASC_NODE": 314.0546,
        "ARG_OF_PERICENTER": 100.4453,
        "MEAN_ANOMALY": 259.6983,
        "EPHEMERIS_TYPE": 0,
        "CLASSIFICATION_TYPE": "U",
        "NORAD_CAT_ID": 43073,
        "ELEMENT_SET_NO": 999,
        "REV_AT_EPOCH": 44693,
        "BSTAR": 0.000024021,
        "MEAN_MOTION_DOT": 8.7e-7,
        "MEAN_MOTION_DDOT": 0
      },
      "source": "celestrak",
      "source_url": "https://celestrak.org/NORAD/elements/gp.php?GROUP=IRIDIUM-NEXT&FORMAT=JSON",
      "catalog_fingerprint": "75f53801"
    },
    {
      "satellite_id": "P05-S10",
      "norad_id": 43071,
      "satellite_name": "IRIDIUM 138",
      "cospar_id": "2017-083B",
      "shell_id": "iridium-next-real-86.4deg-785km",
      "plane_id": 4,
      "slot_id": 9,
      "epoch": "2026-07-06T20:26:23.051616",
      "inclination": 86.3995,
      "raan": 313.49289999999996,
      "eccentricity": 0.0002101,
      "argument_of_perigee": 89.47300000000001,
      "mean_anomaly": 270.6707,
      "mean_motion": 14.34218277,
      "bstar": 0.000015106,
      "status": "active",
      "raw_omm": {
        "OBJECT_NAME": "IRIDIUM 138",
        "OBJECT_ID": "2017-083B",
        "EPOCH": "2026-07-06T20:26:23.051616",
        "MEAN_MOTION": 14.34218277,
        "ECCENTRICITY": 0.0002101,
        "INCLINATION": 86.3995,
        "RA_OF_ASC_NODE": 313.4929,
        "ARG_OF_PERICENTER": 89.473,
        "MEAN_ANOMALY": 270.6707,
        "EPHEMERIS_TYPE": 0,
        "CLASSIFICATION_TYPE": "U",
        "NORAD_CAT_ID": 43071,
        "ELEMENT_SET_NO": 999,
        "REV_AT_EPOCH": 44695,
        "BSTAR": 0.000015106,
        "MEAN_MOTION_DOT": 6.2e-7,
        "MEAN_MOTION_DDOT": 0
      },
      "source": "celestrak",
      "source_url": "https://celestrak.org/NORAD/elements/gp.php?GROUP=IRIDIUM-NEXT&FORMAT=JSON",
      "catalog_fingerprint": "75f53801"
    }
  ]
}