IRIDIUM 138             
1 43071U 17083B   26187.85165569  .00000062  00000+0  15106-4 0  9997
2 43071  86.3995 313.4929 0002101  89.4730 270.6707 14.34218277446959
IRIDIUM 130             
1 43073U 17083D   26187.85799797  .00000087  00000+0  24021-4 0  9998
2 43073  86.3989 314.0546 0002132 100.4453 259.6983 14.34218303446937
IRIDIUM 134             
1 43075U 17083F   26187.87068372 -.00000038  00000+0 -20486-4 0  9999
2 43075  86.3981 313.8389 0002052  95.4828 264.6602 14.34217455446923
IRIDIUM 137             
1 43076U 17083G   26187.39498969  .00000111  00000+0  32508-4 0  9994
2 43076  86.3985 314.1305 0002640  97.3462 262.8034 14.34218660446926
IRIDIUM 141             
1 43077U 17083H   26187.38864732  .00000062  00000+0  14974-4 0  9991
2 43077  86.3980 313.9628 0002180  91.8895 268.2550 14.34218071446924
IRIDIUM 131             
1 43079U 17083K   26187.86434167  .00000011  00000+0 -32544-5 0  9990
2 43079  86.3984 313.9514 0002121  93.3240 266.8199 14.34217791446921
